
239ALFEROV (RS61S)
1 64881U 25155F   26170.24248305  .00012238  00000+0  38601-3 0  9995
2 64881  97.4558 139.5203 0008281 152.7854 207.3823 15.32985971 81128

ALTAIR (RS65S)
1 61779U 24199AW  26170.26038766  .00006841  00000+0  19063-3 0  9999
2 61779  97.3023  39.5973 0010957 302.7555  57.2633 15.37048954137431

ASRTU-1 (AO-123)
1 61781U 24199AY  26170.25010615  .00006699  00000+0  19483-3 0  9991
2 61781  97.2994  38.9019 0012139 305.7813  54.2302 15.35701314134248

COLIBRI-S (RS67S)
1 61746U 24199M   26170.25998852  .00018803  00000+0  36350-3 0  9992
2 61746  97.2987  44.1326 0006272 268.5680  91.4852 15.47795903137730

GEOSCAN 1 (RS92S1)
1 64880U 25155E   26170.27583110  .00009075  00000+0  30730-3 0  9993
2 64880  97.4557 138.9854 0008574 155.5264 204.6385 15.30781965 81096

GEOSCAN 2 (RS92S2)
1 64890U 25155Q   26170.26914559  .00009275  00000+0  31139-3 0  9994
2 64890  97.4556 139.1321 0008348 143.3551 216.8263 15.31053704 81107

GEOSCAN 3 (RS92S3)
1 64893U 25155T   26170.27836914  .00014512  00000+0  42303-3 0  9991
2 64893  97.4542 140.1796 0007049 154.1690 205.9907 15.35453117 81171

GEOSCAN 4 (RS92S4)
1 64892U 25155S   26170.28032362  .00012156  00000+0  37790-3 0  9992
2 64892  97.4553 139.7456 0007083 155.8532 204.3044 15.33458506 81147

GEOSCAN 5 (RS92S5)
1 64891U 25155R   26170.23108269  .00011718  00000+0  36619-3 0  9998
2 64891  97.4550 139.6470 0007029 156.3763 203.7804 15.33302125 81131

GEOSCAN 6 (RS92S6)
1 64879U 25155D   26170.27419435  .00008386  00000+0  28944-3 0  9997
2 64879  97.4561 138.8341 0008616 155.7619 204.4028 15.30184337 81083

HORS 3 (RS81S)
1 61753U 24199U   26170.27738579  .00031327  00000+0  46590-3 0  9993
2 61753  97.2969  46.1595 0003757 265.0921  94.9904 15.55096170137884

HORS 4 (RS82S)
1 61754U 24199V   26170.29580285  .00041890  00000+0  52108-3 0  9993
2 61754  97.2914  47.3934 0003276 244.6894 115.4023 15.59847108137973

HYPERVIEW 1G (RS66S)
1 61772U 24199AP  26169.90392480  .00124754  00000+0  78800-3 0  9995
2 61772  97.2865  49.7100 0004190 212.2711 147.8299 15.76240826134945

INNOSAT 16 (RS92S7)
1 64878U 25155C   26170.23230517  .00004582  00000+0  18368-3 0  9997
2 64878  97.4567 137.3534 0010792 168.4826 191.6661 15.25474407 80987

KUZGTU 1 (RS47S)
1 57217U 23091AV  26170.25793695  .00009929  00000+0  34478-3 0  9996
2 57217  97.5059 234.7590 0012270  91.6499 268.6147 15.29900891164693

MESAT1
1 60209U 24125G   26170.09059365  .00048291  00000+0  52285-3 0  9992
2 60209  97.2284  27.6161 0009751 196.5946 163.4996 15.63376817109865

OOV-CUBE (TUBSAT-30)
1 60240U 24128F   26170.25125463  .00001348  00000+0  11406-3 0  9993
2 60240  61.9931 218.3757 0044384 134.2215 226.2535 15.02780201106421

RTU MIREA 1 (RS51S)
1 61785U 24199BC  26170.26340997  .00051664  00000+0  60724-3 0  9991
2 61785  97.2924  47.0418 0005619 256.4384 103.6247 15.61278966134797

SAMSAT-IONOSPHERE (RS7*)
1 61784U 24199BB  26170.24357807  .00040229  00000+0  54073-3 0  9991
2 61784  97.2935  46.1792 0005927 265.8326  94.2253 15.57778757137888

SIT-2086
1 61764U 24199AF  26170.25817071  .00033432  00000+0  53209-3 0  9992
2 61764  97.2927  46.6091 0004784 239.5507 120.5274 15.53207034134753

SONATE-2
1 59112U 24043Q   26169.93578771  .00028512  00000+0  36936-3 0  9999
2 59112  97.5537 320.4387 0007134 189.6156 170.4964 15.58824558128164

TEVEL2-1
1 63217U 25052H   26170.20113548  .00015095  00000+0  46186-3 0  9990
2 63217  97.3871  66.1496 0004797 109.7033 250.4728 15.33924273 70406

TEVEL2-2
1 63219U 25052K   26170.20143778  .00015322  00000+0  46863-3 0  9995
2 63219  97.3874  66.1522 0004787 109.9793 250.1966 15.33933117 70403

TEVEL2-3
1 63218U 25052J   26170.26093798  .00015207  00000+0  46441-3 0  9990
2 63218  97.3873  66.2314 0004819 109.8969 250.2793 15.33981417 70417

TEVEL2-4
1 63213U 25052D   26170.20352453  .00015753  00000+0  47064-3 0  9993
2 63213  97.3896  66.5983 0004937  99.1474 261.0328 15.34669894 70423

TEVEL2-5
1 63214U 25052E   26170.22425263  .00015567  00000+0  46766-3 0  9997
2 63214  97.3892  66.5660 0004878 100.7080 259.4713 15.34496992 70424

TEVEL2-6
1 63215U 25052F   26170.23663048  .00015385  00000+0  46276-3 0  9998
2 63215  97.3899  66.5630 0004751 101.2362 258.9415 15.34461785 70423

TEVEL2-7
1 63238U 25052AE  26170.22275497  .00013282  00000+0  43640-3 0  9995
2 63238  97.3935  65.4597 0008026 125.5065 234.6926 15.31652594 70332

TEVEL2-8
1 63239U 25052AF  26170.23102740  .00013299  00000+0  43718-3 0  9991
2 63239  97.3936  65.4447 0008039 125.8812 234.3177 15.31637489 70336

TEVEL2-9
1 63237U 25052AD  26170.24678173  .00014040  00000+0  45689-3 0  9992
2 63237  97.3933  65.5684 0007951 125.0554 235.1435 15.31950359 70343
