OBJECT_NAME,OBJECT_ID,EPOCH,MEAN_MOTION,ECCENTRICITY,INCLINATION,RA_OF_ASC_NODE,ARG_OF_PERICENTER,MEAN_ANOMALY,EPHEMERIS_TYPE,CLASSIFICATION_TYPE,NORAD_CAT_ID,ELEMENT_SET_NO,REV_AT_EPOCH,BSTAR,MEAN_MOTION_DOT,MEAN_MOTION_DDOT
KUZGTU 1 (RS47S),2023-091AV,2026-06-19T06:11:25.752480,15.29900891,.00122707,97.5059,234.7590,91.6499,268.6147,0,U,57217,999,16469,.34477587E-3,.9929E-4,0
SONATE-2,2024-043Q,2026-06-18T22:27:32.058144,15.58824558,.0007134,97.5537,320.4387,189.6156,170.4964,0,U,59112,999,12816,.36936E-3,.28512E-3,0
MESAT1,2024-125G,2026-06-19T02:10:27.291360,15.63376817,.00097514,97.2284,27.6161,196.5946,163.4996,0,U,60209,999,10986,.52285319E-3,.48291E-3,0
OOV-CUBE (TUBSAT-30),2024-128F,2026-06-19T06:01:48.400032,15.02780201,.0044384,61.9931,218.3757,134.2215,226.2535,0,U,60240,999,10642,.11405923E-3,.1348E-4,0
COLIBRI-S (RS67S),2024-199M,2026-06-19T06:14:23.008128,15.47795903,.00062722,97.2987,44.1326,268.5680,91.4852,0,U,61746,999,13773,.36349805E-3,.18803E-3,0
HORS 3 (RS81S),2024-199U,2026-06-19T06:39:26.132256,15.55096170,.00037575,97.2969,46.1595,265.0921,94.9904,0,U,61753,999,13788,.46589564E-3,.31327E-3,0
HORS 4 (RS82S),2024-199V,2026-06-19T07:05:57.366240,15.59847108,.00032762,97.2914,47.3934,244.6894,115.4023,0,U,61754,999,13797,.52107814E-3,.4189E-3,0
SIT-2086,2024-199AF,2026-06-19T06:11:45.949344,15.53207034,.00047841,97.2927,46.6091,239.5507,120.5274,0,U,61764,999,13475,.53209474E-3,.33432E-3,0
HYPERVIEW 1G (RS66S),2024-199AP,2026-06-18T21:41:39.102720,15.76240826,.000419,97.2865,49.7100,212.2711,147.8299,0,U,61772,999,13494,.788E-3,.124754E-2,0
ALTAIR (RS65S),2024-199AW,2026-06-19T06:14:57.493824,15.37048954,.00109577,97.3023,39.5973,302.7555,57.2633,0,U,61779,999,13743,.19063122E-3,.6841E-4,0
ASRTU-1 (AO-123),2024-199AY,2026-06-19T06:00:09.171360,15.35701314,.00121393,97.2994,38.9019,305.7813,54.2302,0,U,61781,999,13424,.19483082E-3,.6699E-4,0
SAMSAT-IONOSPHERE (RS75S),2024-199BB,2026-06-19T05:50:45.145248,15.57778757,.00059272,97.2935,46.1792,265.8326,94.2253,0,U,61784,999,13788,.54072766E-3,.40229E-3,0
RTU MIREA 1 (RS51S),2024-199BC,2026-06-19T06:19:18.621408,15.61278966,.00056195,97.2924,47.0418,256.4384,103.6247,0,U,61785,999,13479,.60723713E-3,.51664E-3,0
TEVEL2-4,2025-052D,2026-06-19T04:53:04.519392,15.34669894,.00049379,97.3896,66.5983,99.1474,261.0328,0,U,63213,999,7042,.47064472E-3,.15753E-3,0
TEVEL2-5,2025-052E,2026-06-19T05:22:55.427232,15.34496992,.00048787,97.3892,66.5660,100.7080,259.4713,0,U,63214,999,7042,.46766436E-3,.15567E-3,0
TEVEL2-6,2025-052F,2026-06-19T05:40:44.873472,15.34461785,.00047515,97.3899,66.5630,101.2362,258.9415,0,U,63215,999,7042,.46276133E-3,.15385E-3,0
TEVEL2-1,2025-052H,2026-06-19T04:49:38.105472,15.33924273,.00047971,97.3871,66.1496,109.7033,250.4728,0,U,63217,999,7040,.46186445E-3,.15095E-3,0
TEVEL2-3,2025-052J,2026-06-19T06:15:45.041472,15.33981417,.00048192,97.3873,66.2314,109.8969,250.2793,0,U,63218,999,7041,.46440968E-3,.15207E-3,0
TEVEL2-2,2025-052K,2026-06-19T04:50:04.224192,15.33933117,.00047874,97.3874,66.1522,109.9793,250.1966,0,U,63219,999,7040,.4686282E-3,.15322E-3,0
TEVEL2-9,2025-052AD,2026-06-19T05:55:21.941472,15.31950359,.00079517,97.3933,65.5684,125.0554,235.1435,0,U,63237,999,7034,.45689444E-3,.1404E-3,0
TEVEL2-7,2025-052AE,2026-06-19T05:20:46.029408,15.31652594,.00080263,97.3935,65.4597,125.5065,234.6926,0,U,63238,999,7033,.4363994E-3,.13282E-3,0
TEVEL2-8,2025-052AF,2026-06-19T05:32:40.767360,15.31637489,.00080398,97.3936,65.4447,125.8812,234.3177,0,U,63239,999,7033,.43718322E-3,.13299E-3,0
INNOSAT 16 (RS92S7),2025-155C,2026-06-19T05:34:31.166688,15.25474407,.00107926,97.4567,137.3534,168.4826,191.6661,0,U,64878,999,8098,.18367804E-3,.4582E-4,0
GEOSCAN 6 (RS92S6),2025-155D,2026-06-19T06:34:50.391840,15.30184337,.0008616,97.4561,138.8341,155.7619,204.4028,0,U,64879,999,8108,.28943517E-3,.8386E-4,0
GEOSCAN 1 (RS92S1),2025-155E,2026-06-19T06:37:11.807040,15.30781965,.00085749,97.4557,138.9854,155.5264,204.6385,0,U,64880,999,8109,.30730085E-3,.9075E-4,0
239ALFEROV (RS61S),2025-155F,2026-06-19T05:49:10.535520,15.32985971,.00082813,97.4558,139.5203,152.7854,207.3823,0,U,64881,999,8112,.38601204E-3,.12238E-3,0
GEOSCAN 2 (RS92S2),2025-155Q,2026-06-19T06:27:34.178976,15.31053704,.00083482,97.4556,139.1321,143.3551,216.8263,0,U,64890,999,8110,.31138793E-3,.9275E-4,0
GEOSCAN 5 (RS92S5),2025-155R,2026-06-19T05:32:45.544416,15.33302125,.00070294,97.4550,139.6470,156.3763,203.7804,0,U,64891,999,8113,.36618813E-3,.11718E-3,0
GEOSCAN 4 (RS92S4),2025-155S,2026-06-19T06:43:39.960768,15.33458506,.00070838,97.4553,139.7456,155.8532,204.3044,0,U,64892,999,8114,.37789601E-3,.12156E-3,0
GEOSCAN 3 (RS92S3),2025-155T,2026-06-19T06:40:51.093696,15.35453117,.00070499,97.4542,140.1796,154.1690,205.9907,0,U,64893,999,8117,.423027E-3,.14512E-3,0
